TIANMU-1 08             
1 57400U 23101B   26066.00237819  .00000346  00000+0  14775-4 0  9993
2 57400  97.2717 118.7901 0006380 134.2174 225.9592 15.29204229146020
STARLINK-31721          
1 59536U 24074C   26068.14238197 -.00000369  00000+0 -38775-5 0  9996
2 59536  43.0039 346.3569 0000975 263.6661  96.4079 15.27570564105931
